[{"OBJECT_NAME":"FLOCK 4Q-11","OBJECT_ID":"2023-174T","EPOCH":"2026-03-05T05:30:02.193120","MEAN_MOTION":15.44874366,"ECCENTRICITY":0.00076216,"INCLINATION":97.3909,"RA_OF_ASC_NODE":150.7597,"ARG_OF_PERICENTER":170.1349,"MEAN_ANOMALY":190.0051,"EPHEMERIS_TYPE":0,"CLASSIFICATION_TYPE":"U","NORAD_CAT_ID":58273,"ELEMENT_SET_NO":999,"REV_AT_EPOCH":12951,"BSTAR":0.00066602313,"MEAN_MOTION_DOT":0.00031292,"MEAN_MOTION_DDOT":0},{"OBJECT_NAME":"FLOCK 4Q-36","OBJECT_ID":"2023-174U","EPOCH":"2026-03-05T05:20:32.426592","MEAN_MOTION":15.5087325,"ECCENTRICITY":0.00076886,"INCLINATION":97.3896,"RA_OF_ASC_NODE":153.3731,"ARG_OF_PERICENTER":160.0606,"MEAN_ANOMALY":200.0948,"EPHEMERIS_TYPE":0,"CLASSIFICATION_TYPE":"U","NORAD_CAT_ID":58274,"ELEMENT_SET_NO":999,"REV_AT_EPOCH":12968,"BSTAR":0.00061664473,"MEAN_MOTION_DOT":0.00035691,"MEAN_MOTION_DDOT":0},{"OBJECT_NAME":"FLOCK 4Q-12","OBJECT_ID":"2023-174V","EPOCH":"2026-03-05T05:34:58.890720","MEAN_MOTION":15.51199804,"ECCENTRICITY":0.0005977,"INCLINATION":97.389,"RA_OF_ASC_NODE":153.2665,"ARG_OF_PERICENTER":167.6587,"MEAN_ANOMALY":192.4813,"EPHEMERIS_TYPE":0,"CLASSIFICATION_TYPE":"U","NORAD_CAT_ID":58275,"ELEMENT_SET_NO":999,"REV_AT_EPOCH":12970,"BSTAR":0.0014334113,"MEAN_MOTION_DOT":0.00084538,"MEAN_MOTION_DDOT":0},{"OBJECT_NAME":"FLOCK 4Q-28","OBJECT_ID":"2023-174AA","EPOCH":"2026-03-05T04:09:41.283072","MEAN_MOTION":15.48712324,"ECCENTRICITY":0.0007196,"INCLINATION":97.3915,"RA_OF_ASC_NODE":152.4474,"ARG_OF_PERICENTER":166.8181,"MEAN_ANOMALY":193.3259,"EPHEMERIS_TYPE":0,"CLASSIFICATION_TYPE":"U","NORAD_CAT_ID":58280,"ELEMENT_SET_NO":999,"REV_AT_EPOCH":12961,"BSTAR":0.00073233658,"MEAN_MOTION_DOT":0.00039314,"MEAN_MOTION_DDOT":0},{"OBJECT_NAME":"FLOCK 4Q-27","OBJECT_ID":"2023-174AC","EPOCH":"2026-03-05T05:36:41.190048","MEAN_MOTION":15.48699488,"ECCENTRICITY":0.00067077,"INCLINATION":97.3859,"RA_OF_ASC_NODE":152.0521,"ARG_OF_PERICENTER":162.2699,"MEAN_ANOMALY":197.8788,"EPHEMERIS_TYPE":0,"CLASSIFICATION_TYPE":"U","NORAD_CAT_ID":58282,"ELEMENT_SET_NO":999,"REV_AT_EPOCH":12963,"BSTAR":0.00075241866,"MEAN_MOTION_DOT":0.00040377,"MEAN_MOTION_DDOT":0},{"OBJECT_NAME":"FLOCK 4Q-26","OBJECT_ID":"2023-174AE","EPOCH":"2026-03-05T05:07:17.029056","MEAN_MOTION":15.50499686,"ECCENTRICITY":0.0007345,"INCLINATION":97.3908,"RA_OF_ASC_NODE":153.4504,"ARG_OF_PERICENTER":164.3676,"MEAN_ANOMALY":195.7804,"EPHEMERIS_TYPE":0,"CLASSIFICATION_TYPE":"U","NORAD_CAT_ID":58284,"ELEMENT_SET_NO":999,"REV_AT_EPOCH":12968,"BSTAR":0.00069893704,"MEAN_MOTION_DOT":0.00039953,"MEAN_MOTION_DDOT":0},{"OBJECT_NAME":"FLOCK 4Q-31","OBJECT_ID":"2023-174AF","EPOCH":"2026-03-05T04:17:17.595168","MEAN_MOTION":15.50007501,"ECCENTRICITY":0.00077825,"INCLINATION":97.3955,"RA_OF_ASC_NODE":153.0575,"ARG_OF_PERICENTER":166.5095,"MEAN_ANOMALY":193.6365,"EPHEMERIS_TYPE":0,"CLASSIFICATION_TYPE":"U","NORAD_CAT_ID":58285,"ELEMENT_SET_NO":999,"REV_AT_EPOCH":12963,"BSTAR":0.00077745834,"MEAN_MOTION_DOT":0.00043713,"MEAN_MOTION_DDOT":0},{"OBJECT_NAME":"FLOCK 4Q-30","OBJECT_ID":"2023-174AG","EPOCH":"2026-03-05T05:33:50.502528","MEAN_MOTION":15.50236728,"ECCENTRICITY":0.00075291,"INCLINATION":97.3954,"RA_OF_ASC_NODE":153.2923,"ARG_OF_PERICENTER":163.1697,"MEAN_ANOMALY":196.9806,"EPHEMERIS_TYPE":0,"CLASSIFICATION_TYPE":"U","NORAD_CAT_ID":58286,"ELEMENT_SET_NO":999,"REV_AT_EPOCH":12965,"BSTAR":0.00078959936,"MEAN_MOTION_DOT":0.0004476,"MEAN_MOTION_DDOT":0},{"OBJECT_NAME":"PELICAN-1","OBJECT_ID":"2023-174AS","EPOCH":"2026-03-05T05:17:21.030720","MEAN_MOTION":15.63352596,"ECCENTRICITY":0.00088343,"INCLINATION":97.3829,"RA_OF_ASC_NODE":158.7414,"ARG_OF_PERICENTER":215.1143,"MEAN_ANOMALY":144.9535,"EPHEMERIS_TYPE":0,"CLASSIFICATION_TYPE":"U","NORAD_CAT_ID":58296,"ELEMENT_SET_NO":999,"REV_AT_EPOCH":12986,"BSTAR":0.00093304656,"MEAN_MOTION_DOT":0.00086541,"MEAN_MOTION_DDOT":0},{"OBJECT_NAME":"FLOCK 4Q-25","OBJECT_ID":"2023-174AZ","EPOCH":"2026-03-05T05:20:36.213504","MEAN_MOTION":15.56053529,"ECCENTRICITY":0.00053673,"INCLINATION":97.3872,"RA_OF_ASC_NODE":154.132,"ARG_OF_PERICENTER":149.5461,"MEAN_ANOMALY":210.6107,"EPHEMERIS_TYPE":0,"CLASSIFICATION_TYPE":"U","NORAD_CAT_ID":58303,"ELEMENT_SET_NO":999,"REV_AT_EPOCH":12977,"BSTAR":0.00077662718,"MEAN_MOTION_DOT":0.00054327,"MEAN_MOTION_DDOT":0},{"OBJECT_NAME":"FLOCK 4Q-29","OBJECT_ID":"2023-174BA","EPOCH":"2026-03-05T06:11:23.769600","MEAN_MOTION":15.49182687,"ECCENTRICITY":0.0007876,"INCLINATION":97.3942,"RA_OF_ASC_NODE":152.9204,"ARG_OF_PERICENTER":154.9188,"MEAN_ANOMALY":205.2447,"EPHEMERIS_TYPE":0,"CLASSIFICATION_TYPE":"U","NORAD_CAT_ID":58304,"ELEMENT_SET_NO":999,"REV_AT_EPOCH":12963,"BSTAR":0.00066481699,"MEAN_MOTION_DOT":0.00036266,"MEAN_MOTION_DDOT":0},{"OBJECT_NAME":"FLOCK 4Q-22","OBJECT_ID":"2023-174BC","EPOCH":"2026-03-05T05:24:57.486240","MEAN_MOTION":15.51764266,"ECCENTRICITY":0.00066331,"INCLINATION":97.3857,"RA_OF_ASC_NODE":153.057,"ARG_OF_PERICENTER":158.4445,"MEAN_ANOMALY":201.7087,"EPHEMERIS_TYPE":0,"CLASSIFICATION_TYPE":"U","NORAD_CAT_ID":58306,"ELEMENT_SET_NO":999,"REV_AT_EPOCH":12970,"BSTAR":0.00080703236,"MEAN_MOTION_DOT":0.00048307,"MEAN_MOTION_DDOT":0},{"OBJECT_NAME":"FLOCK 4Q-23","OBJECT_ID":"2023-174BD","EPOCH":"2026-03-05T04:35:54.382560","MEAN_MOTION":15.54858267,"ECCENTRICITY":0.0006959,"INCLINATION":97.3963,"RA_OF_ASC_NODE":154.5565,"ARG_OF_PERICENTER":154.7612,"MEAN_ANOMALY":205.3984,"EPHEMERIS_TYPE":0,"CLASSIFICATION_TYPE":"U","NORAD_CAT_ID":58307,"ELEMENT_SET_NO":999,"REV_AT_EPOCH":12973,"BSTAR":0.00076825588,"MEAN_MOTION_DOT":0.00051438,"MEAN_MOTION_DDOT":0},{"OBJECT_NAME":"FLOCK 4Q-33","OBJECT_ID":"2023-174BE","EPOCH":"2026-03-05T05:01:28.951104","MEAN_MOTION":15.50846048,"ECCENTRICITY":0.00075708,"INCLINATION":97.3882,"RA_OF_ASC_NODE":152.9799,"ARG_OF_PERICENTER":148.237,"MEAN_ANOMALY":211.934,"EPHEMERIS_TYPE":0,"CLASSIFICATION_TYPE":"U","NORAD_CAT_ID":58308,"ELEMENT_SET_NO":999,"REV_AT_EPOCH":12968,"BSTAR":0.0007006733,"MEAN_MOTION_DOT":0.00040552,"MEAN_MOTION_DDOT":0},{"OBJECT_NAME":"FLOCK 4Q-35","OBJECT_ID":"2023-174BF","EPOCH":"2026-03-05T04:38:17.422080","MEAN_MOTION":15.49829086,"ECCENTRICITY":0.0008186,"INCLINATION":97.3905,"RA_OF_ASC_NODE":153.135,"ARG_OF_PERICENTER":161.4852,"MEAN_ANOMALY":198.6699,"EPHEMERIS_TYPE":0,"CLASSIFICATION_TYPE":"U","NORAD_CAT_ID":58309,"ELEMENT_SET_NO":999,"REV_AT_EPOCH":12966,"BSTAR":0.00073257348,"MEAN_MOTION_DOT":0.00040917,"MEAN_MOTION_DDOT":0},{"OBJECT_NAME":"FLOCK 4Q-34","OBJECT_ID":"2023-174BN","EPOCH":"2026-03-05T04:52:42.263616","MEAN_MOTION":15.5506085,"ECCENTRICITY":0.00067844,"INCLINATION":97.3866,"RA_OF_ASC_NODE":153.9723,"ARG_OF_PERICENTER":156.0105,"MEAN_ANOMALY":204.1466,"EPHEMERIS_TYPE":0,"CLASSIFICATION_TYPE":"U","NORAD_CAT_ID":58316,"ELEMENT_SET_NO":999,"REV_AT_EPOCH":12974,"BSTAR":0.00084166942,"MEAN_MOTION_DOT":0.00056817,"MEAN_MOTION_DDOT":0}]
